start=new Date('2023-04-01T00:00:00.000Z').valueOf();
sats=[{"APOAPSIS":"547.580","NORAD_CAT_ID":"46035","MEAN_ANOMALY":"318.2969","OBJECT_NAME":"STARLINK-1558","INCLINATION":"53.0526","EPHEMERIS_TYPE":"0","OBJECT_ID":"2020-055J","DECAY_DATE":null,"LAUNCH_DATE":"2020-08-07","COUNTRY_CODE":"US","PERIAPSIS":"546.987","REV_AT_EPOCH":"14651","OBJECT_TYPE":"PAYLOAD","MEAN_MOTION_DOT":"0.00028819","SEMIMAJOR_AXIS":"6925.419","CENTER_NAME":"EARTH","FILE":"3876512","MEAN_MOTION_DDOT":"0.0000000000000","BSTAR":"0.00194690000000","SITE":"AFETR","RA_OF_ASC_NODE":"267.5407","TLE_LINE1":"1 46035U 20055J   23090.78995717  .00028819  00000-0  19469-2 0  9996","REF_FRAME":"TEME","PERIOD":"95.594","CLASSIFICATION_TYPE":"U","RCS_SIZE":"LARGE","TLE_LINE2":"2 46035  53.0526 267.5407 0000428  41.8052 318.2969 15.06377086146514","ARG_OF_PERICENTER":"41.8052","EPOCH":"2023-03-31T18:57:32.299488","ELEMENT_SET_NO":"999","TIME_SYSTEM":"UTC","MEAN_ELEMENT_THEORY":"SGP4","ECCENTRICITY":"0.00004280","GP_ID":"229205889","MEAN_MOTION":"15.06377086"},{"NORAD_CAT_ID":"46036","APOAPSIS":"547.982","OBJECT_ID":"2020-055K","INCLINATION":"53.0531","MEAN_ANOMALY":"298.3543","OBJECT_NAME":"STARLINK-1560","EPHEMERIS_TYPE":"0","COUNTRY_CODE":"US","LAUNCH_DATE":"2020-08-07","DECAY_DATE":null,"PERIAPSIS":"546.551","OBJECT_TYPE":"PAYLOAD","REV_AT_EPOCH":"14652","CENTER_NAME":"EARTH","SEMIMAJOR_AXIS":"6925.401","MEAN_MOTION_DOT":"0.00029006","BSTAR":"0.00195910000000","MEAN_MOTION_DDOT":"0.0000000000000","FILE":"3876512","RA_OF_ASC_NODE":"267.3053","SITE":"AFETR","REF_FRAME":"TEME","TLE_LINE1":"1 46036U 20055K   23090.84156079  .00029006  00000-0  19591-2 0  9999","CLASSIFICATION_TYPE":"U","PERIOD":"95.593","RCS_SIZE":"LARGE","ARG_OF_PERICENTER":"61.7550","TLE_LINE2":"2 46036  53.0531 267.3053 0001033  61.7550 298.3543 15.06382775146521","TIME_SYSTEM":"UTC","EPOCH":"2023-03-31T20:11:50.852256","ELEMENT_SET_NO":"999","GP_ID":"229205429","ECCENTRICITY":"0.00010330","MEAN_ELEMENT_THEORY":"SGP4","MEAN_MOTION":"15.06382775"},{"FILE":"3876516","MEAN_MOTION_DDOT":"0.0000000000000","BSTAR":"0.00185190000000","MEAN_MOTION_DOT":"0.00027399","SEMIMAJOR_AXIS":"6925.393","CENTER_NAME":"EARTH","REV_AT_EPOCH":"14651","OBJECT_TYPE":"PAYLOAD","PERIAPSIS":"546.621","DECAY_DATE":null,"COUNTRY_CODE":"US","LAUNCH_DATE":"2020-08-07","OBJECT_NAME":"STARLINK-1565","INCLINATION":"53.0526","EPHEMERIS_TYPE":"0","MEAN_ANOMALY":"281.6921","OBJECT_ID":"2020-055L","APOAPSIS":"547.894","NORAD_CAT_ID":"46037","MEAN_MOTION":"15.06385624","MEAN_ELEMENT_THEORY":"SGP4","GP_ID":"229205955","ECCENTRICITY":"0.00009190","ELEMENT_SET_NO":"999","EPOCH":"2023-03-31T18:31:00.222240","TIME_SYSTEM":"UTC","TLE_LINE2":"2 46037  53.0526 267.6278 0000919  78.4171 281.6921 15.06385624146514","ARG_OF_PERICENTER":"78.4171","RCS_SIZE":"LARGE","PERIOD":"95.593","CLASSIFICATION_TYPE":"U","TLE_LINE1":"1 46037U 20055L   23090.77153035  .00027399  00000-0  18519-2 0  9993","REF_FRAME":"TEME","SITE":"AFETR","RA_OF_ASC_NODE":"267.6278"},{"FILE":"3876221","BSTAR":"0.00028132000000","MEAN_MOTION_DDOT":"0.0000000000000","MEAN_MOTION_DOT":"0.00003913","CENTER_NAME":"EARTH","SEMIMAJOR_AXIS":"6925.309","REV_AT_EPOCH":"14647","OBJECT_TYPE":"PAYLOAD","PERIAPSIS":"546.269","DECAY_DATE":null,"COUNTRY_CODE":"US","LAUNCH_DATE":"2020-08-07","INCLINATION":"53.0542","MEAN_ANOMALY":"270.5219","EPHEMERIS_TYPE":"0","OBJECT_NAME":"STARLINK-1567","OBJECT_ID":"2020-055M","APOAPSIS":"548.079","NORAD_CAT_ID":"46038","MEAN_MOTION":"15.06412995","MEAN_ELEMENT_THEORY":"SGP4","ECCENTRICITY":"0.00013070","GP_ID":"229198366","TIME_SYSTEM":"UTC","ELEMENT_SET_NO":"999","EPOCH":"2023-03-31T12:30:03.508416","TLE_LINE2":"2 46038  53.0542 268.7513 0001307  89.5920 270.5219 15.06412995146478","ARG_OF_PERICENTER":"89.5920","RCS_SIZE":"LARGE","PERIOD":"95.591","CLASSIFICATION_TYPE":"U","TLE_LINE1":"1 46038U 20055M   23090.52087394  .00003913  00000-0  28132-3 0  9990","REF_FRAME":"TEME","SITE":"AFETR","RA_OF_ASC_NODE":"268.7513"},{"DECAY_DATE":null,"LAUNCH_DATE":"2020-08-07","COUNTRY_CODE":"US","OBJECT_NAME":"STARLINK-1569","INCLINATION":"53.0529","MEAN_ANOMALY":"243.4164","EPHEMERIS_TYPE":"0","OBJECT_ID":"2020-055N","APOAPSIS":"548.356","NORAD_CAT_ID":"46039","FILE":"3876224","MEAN_MOTION_DDOT":"0.0000000000000","BSTAR":"0.00045187000000","MEAN_MOTION_DOT":"0.00006450","SEMIMAJOR_AXIS":"6925.440","CENTER_NAME":"EARTH","REV_AT_EPOCH":"14647","OBJECT_TYPE":"PAYLOAD","PERIAPSIS":"546.255","RCS_SIZE":"LARGE","PERIOD":"95.594","CLASSIFICATION_TYPE":"U","TLE_LINE1":"1 46039U 20055N   23090.52823496  .00006450  00000-0  45187-3 0  9990","REF_FRAME":"TEME","SITE":"AFETR","RA_OF_ASC_NODE":"268.7190","MEAN_MOTION":"15.06370042","MEAN_ELEMENT_THEORY":"SGP4","GP_ID":"229198624","ECCENTRICITY":"0.00015170","ELEMENT_SET_NO":"999","EPOCH":"2023-03-31T12:40:39.500544","TIME_SYSTEM":"UTC","TLE_LINE2":"2 46039  53.0529 268.7190 0001517 116.6980 243.4164 15.06370042146470","ARG_OF_PERICENTER":"116.6980"},{"MEAN_MOTION":"15.06394367","ECCENTRICITY":"0.00012520","GP_ID":"229206469","MEAN_ELEMENT_THEORY":"SGP4","ELEMENT_SET_NO":"999","EPOCH":"2023-03-31T18:09:45.944064","TIME_SYSTEM":"UTC","TLE_LINE2":"2 46040  53.0526 267.6933 0001252  81.5100 278.6031 15.06394367146516","ARG_OF_PERICENTER":"81.5100","RCS_SIZE":"LARGE","CLASSIFICATION_TYPE":"U","PERIOD":"95.592","REF_FRAME":"TEME","TLE_LINE1":"1 46040U 20055P   23090.75678176  .00025338  00000-0  17141-2 0  9994","RA_OF_ASC_NODE":"267.6933","SITE":"AFETR","MEAN_MOTION_DDOT":"0.0000000000000","BSTAR":"0.00171410000000","FILE":"3876521","SEMIMAJOR_AXIS":"6925.366","CENTER_NAME":"EARTH","MEAN_MOTION_DOT":"0.00025338","OBJECT_TYPE":"PAYLOAD","REV_AT_EPOCH":"14651","PERIAPSIS":"546.364","COUNTRY_CODE":"US","LAUNCH_DATE":"2020-08-07","DECAY_DATE":null,"OBJECT_ID":"2020-055P","EPHEMERIS_TYPE":"0","INCLINATION":"53.0526","MEAN_ANOMALY":"278.6031","OBJECT_NAME":"STARLINK-1576","NORAD_CAT_ID":"46040","APOAPSIS":"548.098"},{"DECAY_DATE":null,"COUNTRY_CODE":"US","LAUNCH_DATE":"2020-08-07","OBJECT_NAME":"STARLINK-1580","INCLINATION":"53.0541","EPHEMERIS_TYPE":"0","MEAN_ANOMALY":"235.2522","OBJECT_ID":"2020-055Q","APOAPSIS":"547.846","NORAD_CAT_ID":"46041","FILE":"3876516","BSTAR":"0.00185380000000","MEAN_MOTION_DDOT":"0.0000000000000","MEAN_MOTION_DOT":"0.00027398","CENTER_NAME":"EARTH","SEMIMAJOR_AXIS":"6925.515","REV_AT_EPOCH":"14651","OBJECT_TYPE":"PAYLOAD","PERIAPSIS":"546.915","RCS_SIZE":"LARGE","PERIOD":"95.596","CLASSIFICATION_TYPE":"U","TLE_LINE1":"1 46041U 20055Q   23090.76783228  .00027398  00000-0  18538-2 0  9990","REF_FRAME":"TEME","SITE":"AFETR","RA_OF_ASC_NODE":"267.7278","MEAN_MOTION":"15.06345556","MEAN_ELEMENT_THEORY":"SGP4","ECCENTRICITY":"0.00006720","GP_ID":"229205956","TIME_SYSTEM":"UTC","EPOCH":"2023-03-31T18:25:40.708992","ELEMENT_SET_NO":"999","TLE_LINE2":"2 46041  53.0541 267.7278 0000672 124.8530 235.2522 15.06345556146510","ARG_OF_PERICENTER":"124.8530"},{"TLE_LINE1":"1 46042U 20055R   23090.80837872  .00013443  00000-0  92012-3 0  9997","REF_FRAME":"TEME","SITE":"AFETR","RA_OF_ASC_NODE":"267.4589","RCS_SIZE":"LARGE","PERIOD":"95.593","CLASSIFICATION_TYPE":"U","EPOCH":"2023-03-31T19:24:03.921408","ELEMENT_SET_NO":"999","TIME_SYSTEM":"UTC","ARG_OF_PERICENTER":"165.7641","TLE_LINE2":"2 46042  53.0524 267.4589 0001298 165.7641 194.3384 15.06381892146521","MEAN_MOTION":"15.06381892","MEAN_ELEMENT_THEORY":"SGP4","GP_ID":"229205490","ECCENTRICITY":"0.00012980","APOAPSIS":"548.168","NORAD_CAT_ID":"46042","DECAY_DATE":null,"COUNTRY_CODE":"US","LAUNCH_DATE":"2020-08-07","OBJECT_NAME":"STARLINK-1581","INCLINATION":"53.0524","EPHEMERIS_TYPE":"0","MEAN_ANOMALY":"194.3384","OBJECT_ID":"2020-055R","REV_AT_EPOCH":"14652","OBJECT_TYPE":"PAYLOAD","PERIAPSIS":"546.370","FILE":"3876516","MEAN_MOTION_DDOT":"0.0000000000000","BSTAR":"0.00092012000000","MEAN_MOTION_DOT":"0.00013443","SEMIMAJOR_AXIS":"6925.404","CENTER_NAME":"EARTH"},{"MEAN_MOTION_DOT":"0.00008386","CENTER_NAME":"EARTH","SEMIMAJOR_AXIS":"6925.366","FILE":"3876223","BSTAR":"0.00058131000000","MEAN_MOTION_DDOT":"0.0000000000000","PERIAPSIS":"546.097","REV_AT_EPOCH":"14648","OBJECT_TYPE":"PAYLOAD","INCLINATION":"53.0518","MEAN_ANOMALY":"291.9273","OBJECT_NAME":"STARLINK-1582","EPHEMERIS_TYPE":"0","OBJECT_ID":"2020-055S","DECAY_DATE":null,"COUNTRY_CODE":"US","LAUNCH_DATE":"2020-08-07","APOAPSIS":"548.364","NORAD_CAT_ID":"46043","MEAN_ELEMENT_THEORY":"SGP4","ECCENTRICITY":"0.00016370","GP_ID":"229198399","MEAN_MOTION":"15.06394429","ARG_OF_PERICENTER":"68.1890","TLE_LINE2":"2 46043  53.0518 268.3869 0001637  68.1890 291.9273 15.06394429146481","TIME_SYSTEM":"UTC","EPOCH":"2023-03-31T14:26:50.665920","ELEMENT_SET_NO":"999","PERIOD":"95.592","CLASSIFICATION_TYPE":"U","RCS_SIZE":"LARGE","SITE":"AFETR","RA_OF_ASC_NODE":"268.3869","TLE_LINE1":"1 46043U 20055S   23090.60197530  .00008386  00000-0  58131-3 0  9990","REF_FRAME":"TEME"},{"SITE":"AFETR","RA_OF_ASC_NODE":"270.1032","TLE_LINE1":"1 46044U 20055T   23090.21768415  .00010415  00000-0  71686-3 0  9990","REF_FRAME":"TEME","PERIOD":"95.592","CLASSIFICATION_TYPE":"U","RCS_SIZE":"LARGE","TLE_LINE2":"2 46044  53.0522 270.1032 0001551  60.3599 299.7545 15.06408684146437","ARG_OF_PERICENTER":"60.3599","EPOCH":"2023-03-31T05:13:27.910560","ELEMENT_SET_NO":"999","TIME_SYSTEM":"UTC","MEAN_ELEMENT_THEORY":"SGP4","ECCENTRICITY":"0.00015510","GP_ID":"229190949","MEAN_MOTION":"15.06408684","APOAPSIS":"548.261","NORAD_CAT_ID":"46044","INCLINATION":"53.0522","OBJECT_NAME":"STARLINK-1584","MEAN_ANOMALY":"299.7545","EPHEMERIS_TYPE":"0","OBJECT_ID":"2020-055T","DECAY_DATE":null,"LAUNCH_DATE":"2020-08-07","COUNTRY_CODE":"US","PERIAPSIS":"546.113","REV_AT_EPOCH":"14643","OBJECT_TYPE":"PAYLOAD","MEAN_MOTION_DOT":"0.00010415","SEMIMAJOR_AXIS":"6925.322","CENTER_NAME":"EARTH","FILE":"3875858","MEAN_MOTION_DDOT":"0.0000000000000","BSTAR":"0.00071686000000"}];
